CCSDS_OMM_VERS = 2.0
CREATION_DATE  = 
ORIGINATOR     = 

OBJECT_NAME    = DELTA 2 R/B(1)
OBJECT_ID      = 1990-008B
CENTER_NAME    = EARTH
REF_FRAME      = TEME
TIME_SYSTEM    = UTC
MEAN_ELEMENT_THEORY = SGP/SGP4

EPOCH          = 2026-02-06T01:57:53.466912
MEAN_MOTION    = 15.51612423
ECCENTRICITY   = .00958515
INCLINATION    = 35.6065
RA_OF_ASC_NODE = 21.5888
ARG_OF_PERICENTER = 324.0484
MEAN_ANOMALY   = 35.3829

EPHEMERIS_TYPE = 0
CLASSIFICATION_TYPE = U
NORAD_CAT_ID   = 20453
ELEMENT_SET_NO = 999
REV_AT_EPOCH   = 92121
BSTAR          = .10278644E-2
MEAN_MOTION_DOT = .77268E-3
MEAN_MOTION_DDOT = 0

CCSDS_OMM_VERS = 2.0
CREATION_DATE  = 
ORIGINATOR     = 

OBJECT_NAME    = COSMOS 2058
OBJECT_ID      = 1990-010A
CENTER_NAME    = EARTH
REF_FRAME      = TEME
TIME_SYSTEM    = UTC
MEAN_ELEMENT_THEORY = SGP/SGP4

EPOCH          = 2026-02-06T14:13:56.773344
MEAN_MOTION    = 15.11034029
ECCENTRICITY   = .0012073
INCLINATION    = 82.4634
RA_OF_ASC_NODE = 78.0623
ARG_OF_PERICENTER = 83.6310
MEAN_ANOMALY   = 276.6295

EPHEMERIS_TYPE = 0
CLASSIFICATION_TYPE = U
NORAD_CAT_ID   = 20465
ELEMENT_SET_NO = 999
REV_AT_EPOCH   = 93754
BSTAR          = .30569E-3
MEAN_MOTION_DOT = .5145E-4
MEAN_MOTION_DDOT = 0

CCSDS_OMM_VERS = 2.0
CREATION_DATE  = 
ORIGINATOR     = 

OBJECT_NAME    = SL-14 R/B
OBJECT_ID      = 1990-010B
CENTER_NAME    = EARTH
REF_FRAME      = TEME
TIME_SYSTEM    = UTC
MEAN_ELEMENT_THEORY = SGP/SGP4

EPOCH          = 2026-02-06T19:06:23.622336
MEAN_MOTION    = 14.83541772
ECCENTRICITY   = .0020946
INCLINATION    = 82.5031
RA_OF_ASC_NODE = 296.4083
ARG_OF_PERICENTER = 44.8452
MEAN_ANOMALY   = 315.4451

EPHEMERIS_TYPE = 0
CLASSIFICATION_TYPE = U
NORAD_CAT_ID   = 20466
ELEMENT_SET_NO = 999
REV_AT_EPOCH   = 92390
BSTAR          = .75621E-4
MEAN_MOTION_DOT = .649E-5
MEAN_MOTION_DDOT = 0

CCSDS_OMM_VERS = 2.0
CREATION_DATE  = 
ORIGINATOR     = 

OBJECT_NAME    = SL-14 R/B
OBJECT_ID      = 1990-018B
CENTER_NAME    = EARTH
REF_FRAME      = TEME
TIME_SYSTEM    = UTC
MEAN_ELEMENT_THEORY = SGP/SGP4

EPOCH          = 2026-02-06T15:34:40.037664
MEAN_MOTION    = 14.82112727
ECCENTRICITY   = .0016049
INCLINATION    = 82.5184
RA_OF_ASC_NODE = 252.1098
ARG_OF_PERICENTER = 189.3394
MEAN_ANOMALY   = 170.7524

EPHEMERIS_TYPE = 0
CLASSIFICATION_TYPE = U
NORAD_CAT_ID   = 20511
ELEMENT_SET_NO = 999
REV_AT_EPOCH   = 91798
BSTAR          = .63811E-4
MEAN_MOTION_DOT = .532E-5
MEAN_MOTION_DDOT = 0

CCSDS_OMM_VERS = 2.0
CREATION_DATE  = 
ORIGINATOR     = 

OBJECT_NAME    = HST
OBJECT_ID      = 1990-037B
CENTER_NAME    = EARTH
REF_FRAME      = TEME
TIME_SYSTEM    = UTC
MEAN_ELEMENT_THEORY = SGP/SGP4

EPOCH          = 2026-02-06T19:31:08.677632
MEAN_MOTION    = 15.28986456
ECCENTRICITY   = .0001881
INCLINATION    = 28.4665
RA_OF_ASC_NODE = 250.5538
ARG_OF_PERICENTER = 124.2058
MEAN_ANOMALY   = 235.8715

EPHEMERIS_TYPE = 0
CLASSIFICATION_TYPE = U
NORAD_CAT_ID   = 20580
ELEMENT_SET_NO = 999
REV_AT_EPOCH   = 76858
BSTAR          = .29016E-3
MEAN_MOTION_DOT = .8638E-4
MEAN_MOTION_DDOT = 0

CCSDS_OMM_VERS = 2.0
CREATION_DATE  = 
ORIGINATOR     = 

OBJECT_NAME    = SL-16 R/B
OBJECT_ID      = 1990-046B
CENTER_NAME    = EARTH
REF_FRAME      = TEME
TIME_SYSTEM    = UTC
MEAN_ELEMENT_THEORY = SGP/SGP4

EPOCH          = 2026-02-06T07:26:26.255040
MEAN_MOTION    = 14.15005288
ECCENTRICITY   = .0014581
INCLINATION    = 70.9999
RA_OF_ASC_NODE = 3.8134
ARG_OF_PERICENTER = 343.2232
MEAN_ANOMALY   = 16.8406

EPHEMERIS_TYPE = 0
CLASSIFICATION_TYPE = U
NORAD_CAT_ID   = 20625
ELEMENT_SET_NO = 999
REV_AT_EPOCH   = 84395
BSTAR          = .66868E-4
MEAN_MOTION_DOT = .82E-6
MEAN_MOTION_DDOT = 0

CCSDS_OMM_VERS = 2.0
CREATION_DATE  = 
ORIGINATOR     = 

OBJECT_NAME    = COSMOS 2084
OBJECT_ID      = 1990-055A
CENTER_NAME    = EARTH
REF_FRAME      = TEME
TIME_SYSTEM    = UTC
MEAN_ELEMENT_THEORY = SGP/SGP4

EPOCH          = 2026-02-06T12:07:08.645952
MEAN_MOTION    = 15.05449161
ECCENTRICITY   = .0022026
INCLINATION    = 62.7897
RA_OF_ASC_NODE = 81.9221
ARG_OF_PERICENTER = 183.5474
MEAN_ANOMALY   = 176.5474

EPHEMERIS_TYPE = 0
CLASSIFICATION_TYPE = U
NORAD_CAT_ID   = 20663
ELEMENT_SET_NO = 999
REV_AT_EPOCH   = 93162
BSTAR          = .25653488E-3
MEAN_MOTION_DOT = .3519E-4
MEAN_MOTION_DDOT = 0

CCSDS_OMM_VERS = 2.0
CREATION_DATE  = 
ORIGINATOR     = 

OBJECT_NAME    = SL-6 R/B(2)
OBJECT_ID      = 1990-055D
CENTER_NAME    = EARTH
REF_FRAME      = TEME
TIME_SYSTEM    = UTC
MEAN_ELEMENT_THEORY = SGP/SGP4

EPOCH          = 2026-02-05T23:31:00.599520
MEAN_MOTION    = 15.03423586
ECCENTRICITY   = .0020032
INCLINATION    = 62.7852
RA_OF_ASC_NODE = 1.6695
ARG_OF_PERICENTER = 337.8166
MEAN_ANOMALY   = 22.2064

EPHEMERIS_TYPE = 0
CLASSIFICATION_TYPE = U
NORAD_CAT_ID   = 20666
ELEMENT_SET_NO = 999
REV_AT_EPOCH   = 93342
BSTAR          = .30727E-3
MEAN_MOTION_DOT = .4021E-4
MEAN_MOTION_DDOT = 0

CCSDS_OMM_VERS = 2.0
CREATION_DATE  = 
ORIGINATOR     = 

OBJECT_NAME    = SL-8 R/B
OBJECT_ID      = 1990-078B
CENTER_NAME    = EARTH
REF_FRAME      = TEME
TIME_SYSTEM    = UTC
MEAN_ELEMENT_THEORY = SGP/SGP4

EPOCH          = 2026-02-06T17:18:00.061920
MEAN_MOTION    = 14.88038366
ECCENTRICITY   = .036724
INCLINATION    = 82.9020
RA_OF_ASC_NODE = 279.1383
ARG_OF_PERICENTER = 117.7522
MEAN_ANOMALY   = 246.1449

EPHEMERIS_TYPE = 0
CLASSIFICATION_TYPE = U
NORAD_CAT_ID   = 20775
ELEMENT_SET_NO = 999
REV_AT_EPOCH   = 80469
BSTAR          = .5462E-3
MEAN_MOTION_DOT = .18509E-3
MEAN_MOTION_DDOT = 0

CCSDS_OMM_VERS = 2.0
CREATION_DATE  = 
ORIGINATOR     = 

OBJECT_NAME    = SL-8 R/B
OBJECT_ID      = 1991-006B
CENTER_NAME    = EARTH
REF_FRAME      = TEME
TIME_SYSTEM    = UTC
MEAN_ELEMENT_THEORY = SGP/SGP4

EPOCH          = 2026-02-06T20:04:29.144352
MEAN_MOTION    = 13.77491956
ECCENTRICITY   = .0023556
INCLINATION    = 82.9428
RA_OF_ASC_NODE = 192.9843
ARG_OF_PERICENTER = 120.3878
MEAN_ANOMALY   = 350.6727

EPHEMERIS_TYPE = 0
CLASSIFICATION_TYPE = U
NORAD_CAT_ID   = 21088
ELEMENT_SET_NO = 999
REV_AT_EPOCH   = 75982
BSTAR          = .59964E-5
MEAN_MOTION_DOT = .22E-6
MEAN_MOTION_DDOT = 0

CCSDS_OMM_VERS = 2.0
CREATION_DATE  = 
ORIGINATOR     = 

OBJECT_NAME    = OKEAN-3
OBJECT_ID      = 1991-039A
CENTER_NAME    = EARTH
REF_FRAME      = TEME
TIME_SYSTEM    = UTC
MEAN_ELEMENT_THEORY = SGP/SGP4

EPOCH          = 2026-02-06T08:34:03.803808
MEAN_MOTION    = 15.04555101
ECCENTRICITY   = .0016467
INCLINATION    = 82.5183
RA_OF_ASC_NODE = 7.1883
ARG_OF_PERICENTER = 79.4474
MEAN_ANOMALY   = 280.8607

EPHEMERIS_TYPE = 0
CLASSIFICATION_TYPE = U
NORAD_CAT_ID   = 21397
ELEMENT_SET_NO = 999
REV_AT_EPOCH   = 86032
BSTAR          = .33133576E-3
MEAN_MOTION_DOT = .4685E-4
MEAN_MOTION_DDOT = 0

CCSDS_OMM_VERS = 2.0
CREATION_DATE  = 
ORIGINATOR     = 

OBJECT_NAME    = COSMOS 2151
OBJECT_ID      = 1991-042A
CENTER_NAME    = EARTH
REF_FRAME      = TEME
TIME_SYSTEM    = UTC
MEAN_ELEMENT_THEORY = SGP/SGP4

EPOCH          = 2026-02-06T19:09:24.996672
MEAN_MOTION    = 14.99985063
ECCENTRICITY   = .0013149
INCLINATION    = 82.4964
RA_OF_ASC_NODE = 113.4744
ARG_OF_PERICENTER = 157.5943
MEAN_ANOMALY   = 202.5858

EPHEMERIS_TYPE = 0
CLASSIFICATION_TYPE = U
NORAD_CAT_ID   = 21422
ELEMENT_SET_NO = 999
REV_AT_EPOCH   = 85856
BSTAR          = .20731E-3
MEAN_MOTION_DOT = .2607E-4
MEAN_MOTION_DDOT = 0

